0 INSAT 3A
1 27714U 03013A   13281.98828478 -.00000270  00000-0  10000-3 0  9081
2 27714 000.0770 084.2572 0004672 137.9337 244.8847 01.00271424 38499
0 INSAT 3A
1 27714U 03013A   13281.98828478 -.00000270  00000-0  10000-3 0  9092
2 27714 000.0770 084.2572 0004672 137.9337 244.8847 01.00271424 38499
0 INSAT 3A
1 27714U 03013A   13282.65562697 -.00000272  00000-0  10000-3 0  9109
2 27714 000.0783 084.2021 0005060 140.2035 123.5732 01.00271719 38499
0 INSAT 3A
1 27714U 03013A   13282.65562697 -.00000272  00000-0  10000-3 0  9110
2 27714 000.0783 084.2021 0005060 140.2035 123.5732 01.00271719 38499
0 INSAT 3A
1 27714U 03013A   13282.65562697 -.00000272  00000-0  10000-3 0  9121
2 27714 000.0783 084.2021 0005060 140.2035 123.5732 01.00271719 38499
0 INSAT 3A
1 27714U 03013A   13282.97599163  .00000000  00000-0  10000-3 0  9111
2 27714 000.0740 088.3173 0004670 139.6349 235.6256 01.00265417 37988
0 INSAT 3A
1 27714U 03013A   13284.86384456 -.00000280  00000-0  10000-3 0  9142
2 27714 000.0814 083.9551 0005254 140.7159 200.4505 01.00272036 38525
0 INSAT 3A
1 27714U 03013A   13285.87512696 -.00000282  00000-0  10000-3 0  9156
2 27714 000.0837 084.0769 0005383 141.2070 204.8957 01.00271664 38530
0 INSAT 3A
1 27714U 03013A   13285.87512696 -.00000282  00000-0  10000-3 0  9167
2 27714 000.0837 084.0769 0005383 141.2070 204.8957 01.00271664 38530
0 INSAT 3A
1 27714U 03013A   13285.87512696 -.00000282  00000-0  10000-3 0  9178
2 27714 000.0837 084.0769 0005383 141.2070 204.8957 01.00271664 38530
0 INSAT 3A
1 27714U 03013A   13287.05804024 -.00000283  00000-0  10000-3 0  9181
2 27714 000.0873 085.0226 0006298 143.4778 268.6946 01.00272035 38544
0 INSAT 3A
1 27714U 03013A   13287.05804024 -.00000283  00000-0  10000-3 0  9192
2 27714 000.0873 085.0226 0006298 143.4778 268.6946 01.00272035 38544
0 INSAT 3A
1 27714U 03013A   13287.89846836 -.00000283  00000-0  10000-3 0  9203
2 27714 000.0892 084.7862 0006224 143.8016 211.9859 01.00271347 38555
0 INSAT 3A
1 27714U 03013A   13287.89846836 -.00000283  00000-0  10000-3 0  9214
2 27714 000.0892 084.7862 0006224 143.8016 211.9859 01.00271347 38555
0 INSAT 3A
1 27714U 03013A   13289.84677083 -.00000281  00000-0  10000-3 0  9226
2 27714 000.0932 084.7601 0006225 143.8625 195.2537 01.00270691 38578
0 INSAT 3A
1 27714U 03013A   13289.84677083 -.00000281  00000-0  10000-3 0  9237
2 27714 000.0932 084.7601 0006225 143.8625 195.2537 01.00270691 38578
0 INSAT 3A
1 27714U 03013A   13290.95043659 -.00000279  00000-0  10000-3 0  9245
2 27714 000.0960 084.0083 0006296 144.3993 233.8697 01.00270123 38585
0 INSAT 3A
1 27714U 03013A   13291.51413634 -.00000277  00000-0  10000-3 0  9251
2 27714 000.0971 084.0283 0006341 145.2887 076.4447 01.00270043 38587
0 INSAT 3A
1 27714U 03013A   13291.87717968 -.00000277  00000-0  10000-3 0  9268
2 27714 000.0979 083.8279 0006275 146.1028 206.8822 01.00269970 38594
0 INSAT 3A
1 27714U 03013A   13291.87717968 -.00000277  00000-0  10000-3 0  9279
2 27714 000.0979 083.8279 0006275 146.1028 206.8822 01.00269970 38594
0 INSAT 3A
1 27714U 03013A   13291.87717968 -.00000277  00000-0  10000-3 0  9280
2 27714 000.0979 083.8279 0006275 146.1028 206.8822 01.00269970 38594
0 INSAT 3A
1 27714U 03013A   13294.53924473 -.00000272  00000-0  10000-3 0  9293
2 27714 000.1026 083.1844 0006407 146.8198 087.7621 01.00269811 38611
0 INSAT 3A
1 27714U 03013A   13294.86029175 -.00000271  00000-0  10000-3 0  9305
2 27714 000.1012 082.2420 0006460 147.3246 204.0876 01.00269500 38627
0 INSAT 3A
1 27714U 03013A   13295.82320958 -.00000270  00000-0  10000-3 0  9315
2 27714 000.1033 082.1712 0006575 147.2458 191.8386 01.00269920 38630
0 INSAT 3A
1 27714U 03013A   13295.82320958 -.00000270  00000-0  10000-3 0  9326
2 27714 000.1033 082.1712 0006575 147.2458 191.8386 01.00269920 38630
0 INSAT 3A
1 27714U 03013A   13295.82320958 -.00000270  00000-0  10000-3 0  9337
2 27714 000.1033 082.1712 0006575 147.2458 191.8386 01.00269920 38630
0 INSAT 3A
1 27714U 03013A   13295.82320958 -.00000270  00000-0  10000-3 0  9348
2 27714 000.1033 082.1712 0006575 147.2458 191.8386 01.00269920 38630
